{
  "type": "FeatureCollection",
  "features": [
    {
      "type": "Feature",
      "properties": {
        "norad_id": 32393,
        "name": "COSMOS 2434 (721)",
        "group": "gnss",
        "lat": 57.095743434349735,
        "lon": -113.5762026320581,
        "alt_km": 19112.293139804613,
        "timestamp": "2025-12-08T03:50:07.240059+00:00",
        "meta_object_name": "COSMOS 2434 (721)",
        "meta_object_id": "2007-065A",
        "meta_epoch": "2025-12-05T10:54:52.087392",
        "meta_mean_motion": 2.1310119,
        "meta_eccentricity": 0.00044378,
        "meta_inclination": 64.3147,
        "meta_ra_of_asc_node": 198.4493,
        "meta_arg_of_pericenter": 70.9033,
        "meta_mean_anomaly": 82.6626,
        "meta_ephemeris_type": 0,
        "meta_classification_type": "U",
        "meta_norad_cat_id": 32393,
        "meta_element_set_no": 999,
        "meta_rev_at_epoch": 13964,
        "meta_bstar": 0,
        "meta_mean_motion_dot": 8.7e-07,
        "meta_mean_motion_ddot": 0,
        "tle_line1": "1 32393U 07065A   25339.45476953  .00000087  00000+0  00000+0 0  9996",
        "tle_line2": "2 32393  64.3147 198.4493 0004437  70.9033  82.6626  2.13101190139646"
      },
      "geometry": {
        "type": "Point",
        "coordinates": [
          -113.5762026320581,
          57.095743434349735
        ]
      }
    },
    {
      "type": "Feature",
      "properties": {
        "norad_id": 32395,
        "name": "COSMOS 2436 (723)",
        "group": "gnss",
        "lat": -19.556296036105532,
        "lon": 28.272568444570407,
        "alt_km": 19177.186757990723,
        "timestamp": "2025-12-08T03:50:07.240071+00:00",
        "meta_object_name": "COSMOS 2436 (723)",
        "meta_object_id": "2007-065C",
        "meta_epoch": "2025-12-07T03:33:41.330592",
        "meta_mean_motion": 2.13100006,
        "meta_eccentricity": 0.00177394,
        "meta_inclination": 64.3236,
        "meta_ra_of_asc_node": 198.4623,
        "meta_arg_of_pericenter": 9.1382,
        "meta_mean_anomaly": 136.8175,
        "meta_ephemeris_type": 0,
        "meta_classification_type": "U",
        "meta_norad_cat_id": 32395,
        "meta_element_set_no": 999,
        "meta_rev_at_epoch": 13963,
        "meta_bstar": 0,
        "meta_mean_motion_dot": 6.2e-07,
        "meta_mean_motion_ddot": 0,
        "tle_line1": "1 32395U 07065C   25341.14839503  .00000062  00000+0  00000+0 0  9994",
        "tle_line2": "2 32395  64.3236 198.4623 0017739   9.1382 136.8175  2.13100006139637"
      },
      "geometry": {
        "type": "Point",
        "coordinates": [
          28.272568444570407,
          -19.556296036105532
        ]
      }
    },
    {
      "type": "Feature",
      "properties": {
        "norad_id": 32711,
        "name": "GPS BIIRM-6 (PRN 07)",
        "group": "gnss",
        "lat": -15.508393104001222,
        "lon": 146.11057345399394,
        "alt_km": 20228.68876215892,
        "timestamp": "2025-12-08T03:50:07.240082+00:00",
        "meta_object_name": "GPS BIIRM-6 (PRN 07)",
        "meta_object_id": "2008-012A",
        "meta_epoch": "2025-12-06T16:34:57.264384",
        "meta_mean_motion": 2.00565269,
        "meta_eccentricity": 0.02022029,
        "meta_inclination": 54.4762,
        "meta_ra_of_asc_node": 157.6144,
        "meta_arg_of_pericenter": 244.8815,
        "meta_mean_anomaly": 113.0202,
        "meta_ephemeris_type": 0,
        "meta_classification_type": "U",
        "meta_norad_cat_id": 32711,
        "meta_element_set_no": 999,
        "meta_rev_at_epoch": 12989,
        "meta_bstar": 0,
        "meta_mean_motion_dot": 6.1e-07,
        "meta_mean_motion_ddot": 0,
        "tle_line1": "1 32711U 08012A   25340.69094056  .00000061  00000+0  00000+0 0  9993",
        "tle_line2": "2 32711  54.4762 157.6144 0202202 244.8815 113.0202  2.00565269129895"
      },
      "geometry": {
        "type": "Point",
        "coordinates": [
          146.11057345399394,
          -15.508393104001222
        ]
      }
    },
    {
      "type": "Feature",
      "properties": {
        "norad_id": 35752,
        "name": "GPS BIIRM-8 (PRN 05)",
        "group": "gnss",
        "lat": -1.7574988602944834,
        "lon": 33.800356298293984,
        "alt_km": 20167.434311491903,
        "timestamp": "2025-12-08T03:50:07.240094+00:00",
        "meta_object_name": "GPS BIIRM-8 (PRN 05)",
        "meta_object_id": "2009-043A",
        "meta_epoch": "2025-12-07T06:57:18.338976",
        "meta_mean_motion": 2.00565889,
        "meta_eccentricity": 0.00519498,
        "meta_inclination": 56.0873,
        "meta_ra_of_asc_node": 34.9981,
        "meta_arg_of_pericenter": 82.001,
        "meta_mean_anomaly": 8.335,
        "meta_ephemeris_type": 0,
        "meta_classification_type": "U",
        "meta_norad_cat_id": 35752,
        "meta_element_set_no": 999,
        "meta_rev_at_epoch": 11951,
        "meta_bstar": 0,
        "meta_mean_motion_dot": -7.6e-07,
        "meta_mean_motion_ddot": 0,
        "tle_line1": "1 35752U 09043A   25341.28979559 -.00000076  00000+0  00000+0 0  9999",
        "tle_line2": "2 35752  56.0873  34.9981 0051949  82.0010   8.3350  2.00565889119515"
      },
      "geometry": {
        "type": "Point",
        "coordinates": [
          33.800356298293984,
          -1.7574988602944834
        ]
      }
    },
    {
      "type": "Feature",
      "properties": {
        "norad_id": 36111,
        "name": "COSMOS 2456 (730)",
        "group": "gnss",
        "lat": -40.51191250998675,
        "lon": -78.9262254506466,
        "alt_km": 19132.443893561314,
        "timestamp": "2025-12-08T03:50:07.240106+00:00",
        "meta_object_name": "COSMOS 2456 (730)",
        "meta_object_id": "2009-070A",
        "meta_epoch": "2025-12-06T21:12:24.583968",
        "meta_mean_motion": 2.13103425,
        "meta_eccentricity": 0.00030121,
        "meta_inclination": 64.8968,
        "meta_ra_of_asc_node": 77.5382,
        "meta_arg_of_pericenter": 297.7159,
        "meta_mean_anomaly": 29.056,
        "meta_ephemeris_type": 0,
        "meta_classification_type": "U",
        "meta_norad_cat_id": 36111,
        "meta_element_set_no": 999,
        "meta_rev_at_epoch": 12432,
        "meta_bstar": 0,
        "meta_mean_motion_dot": -1.7e-07,
        "meta_mean_motion_ddot": 0,
        "tle_line1": "1 36111U 09070A   25340.88361787 -.00000017  00000+0  00000+0 0  9997",
        "tle_line2": "2 36111  64.8968  77.5382 0003012 297.7159  29.0560  2.13103425124328"
      },
      "geometry": {
        "type": "Point",
        "coordinates": [
          -78.9262254506466,
          -40.51191250998675
        ]
      }
    },
    {
      "type": "Feature",
      "properties": {
        "norad_id": 36112,
        "name": "COSMOS 2457 (733)",
        "group": "gnss",
        "lat": -4.5473746937097115,
        "lon": 75.21482875810649,
        "alt_km": 19142.762176052467,
        "timestamp": "2025-12-08T03:50:07.240117+00:00",
        "meta_object_name": "COSMOS 2457 (733)",
        "meta_object_id": "2009-070B",
        "meta_epoch": "2025-12-07T05:33:13.940640",
        "meta_mean_motion": 2.13100799,
        "meta_eccentricity": 0.00047672,
        "meta_inclination": 64.8824,
        "meta_ra_of_asc_node": 77.374,
        "meta_arg_of_pericenter": 157.9691,
        "meta_mean_anomaly": 204.8145,
        "meta_ephemeris_type": 0,
        "meta_classification_type": "U",
        "meta_norad_cat_id": 36112,
        "meta_element_set_no": 999,
        "meta_rev_at_epoch": 12434,
        "meta_bstar": 0,
        "meta_mean_motion_dot": -1.6e-07,
        "meta_mean_motion_ddot": 0,
        "tle_line1": "1 36112U 09070B   25341.23141135 -.00000016  00000+0  00000+0 0  9990",
        "tle_line2": "2 36112  64.8824  77.3740 0004767 157.9691 204.8145  2.13100799124347"
      },
      "geometry": {
        "type": "Point",
        "coordinates": [
          75.21482875810649,
          -4.5473746937097115
        ]
      }
    },
    {
      "type": "Feature",
      "properties": {
        "norad_id": 36402,
        "name": "COSMOS 2460 (732)",
        "group": "gnss",
        "lat": -5.045343393360344,
        "lon": -41.387654539016935,
        "alt_km": 19129.802390925546,
        "timestamp": "2025-12-08T03:50:07.240129+00:00",
        "meta_object_name": "COSMOS 2460 (732)",
        "meta_object_id": "2010-007C",
        "meta_epoch": "2025-12-05T09:49:39.891072",
        "meta_mean_motion": 2.13106027,
        "meta_eccentricity": 0.00027397,
        "meta_inclination": 65.5337,
        "meta_ra_of_asc_node": 321.021,
        "meta_arg_of_pericenter": 272.5603,
        "meta_mean_anomaly": 131.8824,
        "meta_ephemeris_type": 0,
        "meta_classification_type": "U",
        "meta_norad_cat_id": 36402,
        "meta_element_set_no": 999,
        "meta_rev_at_epoch": 12260,
        "meta_bstar": 0,
        "meta_mean_motion_dot": -4.8e-07,
        "meta_mean_motion_ddot": 0,
        "tle_line1": "1 36402U 10007C   25339.40948948 -.00000048  00000+0  00000+0 0  9992",
        "tle_line2": "2 36402  65.5337 321.0210 0002739 272.5603 131.8824  2.13106027122601"
      },
      "geometry": {
        "type": "Point",
        "coordinates": [
          -41.387654539016935,
          -5.045343393360344
        ]
      }
    }
  ]
}